[{"OBJECT_NAME":"ONEWEB-0321","OBJECT_ID":"2021-083F","EPOCH":"2026-04-16T18:17:30.689664","MEAN_MOTION":13.20770578,"ECCENTRICITY":0.0001868,"INCLINATION":87.9137,"RA_OF_ASC_NODE":286.6963,"ARG_OF_PERICENTER":83.7138,"MEAN_ANOMALY":276.4208,"EPHEMERIS_TYPE":0,"CLASSIFICATION_TYPE":"U","NORAD_CAT_ID":49191,"ELEMENT_SET_NO":999,"REV_AT_EPOCH":22872,"BSTAR":1.5763e-05,"MEAN_MOTION_DOT":1.9e-07,"MEAN_MOTION_DDOT":0.0},{"OBJECT_NAME":"ONEWEB-0322","OBJECT_ID":"2021-083G","EPOCH":"2026-04-16T14:29:37.768704","MEAN_MOTION":13.13470461,"ECCENTRICITY":0.0002167,"INCLINATION":87.8971,"RA_OF_ASC_NODE":332.5047,"ARG_OF_PERICENTER":79.785,"MEAN_ANOMALY":280.3523,"EPHEMERIS_TYPE":0,"CLASSIFICATION_TYPE":"U","NORAD_CAT_ID":49192,"ELEMENT_SET_NO":999,"REV_AT_EPOCH":22283,"BSTAR":0.00071852,"MEAN_MOTION_DOT":2.75e-06,"MEAN_MOTION_DDOT":0.0},{"OBJECT_NAME":"ONEWEB-0324","OBJECT_ID":"2021-083H","EPOCH":"2026-04-16T14:23:54.542976","MEAN_MOTION":13.18684101,"ECCENTRICITY":0.0001683,"INCLINATION":87.9221,"RA_OF_ASC_NODE":347.6948,"ARG_OF_PERICENTER":77.6868,"MEAN_ANOMALY":282.4453,"EPHEMERIS_TYPE":0,"CLASSIFICATION_TYPE":"U","NORAD_CAT_ID":49193,"ELEMENT_SET_NO":999,"REV_AT_EPOCH":22188,"BSTAR":-5.9270999999999995e-05,"MEAN_MOTION_DOT":-1e-07,"MEAN_MOTION_DDOT":0.0},{"OBJECT_NAME":"ONEWEB-0325","OBJECT_ID":"2021-083J","EPOCH":"2026-04-16T14:28:40.144224","MEAN_MOTION":13.18684892,"ECCENTRICITY":0.0001795,"INCLINATION":87.9213,"RA_OF_ASC_NODE":347.7083,"ARG_OF_PERICENTER":82.6897,"MEAN_ANOMALY":277.4439,"EPHEMERIS_TYPE":0,"CLASSIFICATION_TYPE":"U","NORAD_CAT_ID":49194,"ELEMENT_SET_NO":999,"REV_AT_EPOCH":22189,"BSTAR":-6.1561e-05,"MEAN_MOTION_DOT":-1.1e-07,"MEAN_MOTION_DDOT":0.0},{"OBJECT_NAME":"ONEWEB-0326","OBJECT_ID":"2021-083K","EPOCH":"2026-04-16T14:50:14.355744","MEAN_MOTION":13.18685594,"ECCENTRICITY":0.0001696,"INCLINATION":87.9223,"RA_OF_ASC_NODE":347.6978,"ARG_OF_PERICENTER":91.093,"MEAN_ANOMALY":269.0396,"EPHEMERIS_TYPE":0,"CLASSIFICATION_TYPE":"U","NORAD_CAT_ID":49195,"ELEMENT_SET_NO":999,"REV_AT_EPOCH":22188,"BSTAR":0.00029965000000000005,"MEAN_MOTION_DOT":1.31e-06,"MEAN_MOTION_DDOT":0.0},{"OBJECT_NAME":"ONEWEB-0327","OBJECT_ID":"2021-083L","EPOCH":"2026-04-16T14:49:50.142144","MEAN_MOTION":13.18685169,"ECCENTRICITY":0.0001815,"INCLINATION":87.9213,"RA_OF_ASC_NODE":347.7073,"ARG_OF_PERICENTER":95.4348,"MEAN_ANOMALY":264.6991,"EPHEMERIS_TYPE":0,"CLASSIFICATION_TYPE":"U","NORAD_CAT_ID":49196,"ELEMENT_SET_NO":999,"REV_AT_EPOCH":22190,"BSTAR":-0.0003251,"MEAN_MOTION_DOT":-1.15e-06,"MEAN_MOTION_DDOT":0.0},{"OBJECT_NAME":"ONEWEB-0328","OBJECT_ID":"2021-083M","EPOCH":"2026-04-16T14:15:00.010368","MEAN_MOTION":13.13469748,"ECCENTRICITY":0.0001602,"INCLINATION":87.8989,"RA_OF_ASC_NODE":332.4728,"ARG_OF_PERICENTER":79.4927,"MEAN_ANOMALY":280.6382,"EPHEMERIS_TYPE":0,"CLASSIFICATION_TYPE":"U","NORAD_CAT_ID":49197,"ELEMENT_SET_NO":999,"REV_AT_EPOCH":22281,"BSTAR":-2.3634e-05,"MEAN_MOTION_DOT":4e-08,"MEAN_MOTION_DDOT":0.0},{"OBJECT_NAME":"ONEWEB-0331","OBJECT_ID":"2021-083N","EPOCH":"2026-04-16T14:40:31.946304","MEAN_MOTION":13.186869,"ECCENTRICITY":0.0001461,"INCLINATION":87.9224,"RA_OF_ASC_NODE":347.6927,"ARG_OF_PERICENTER":88.6383,"MEAN_ANOMALY":271.4917,"EPHEMERIS_TYPE":0,"CLASSIFICATION_TYPE":"U","NORAD_CAT_ID":49198,"ELEMENT_SET_NO":999,"REV_AT_EPOCH":22189,"BSTAR":-7.1193e-05,"MEAN_MOTION_DOT":-1.5e-07,"MEAN_MOTION_DDOT":0.0},{"OBJECT_NAME":"ONEWEB-0333","OBJECT_ID":"2021-083P","EPOCH":"2026-04-16T21:26:27.956832","MEAN_MOTION":13.13469646,"ECCENTRICITY":0.0001745,"INCLINATION":87.8976,"RA_OF_ASC_NODE":332.445,"ARG_OF_PERICENTER":84.7071,"MEAN_ANOMALY":275.4258,"EPHEMERIS_TYPE":0,"CLASSIFICATION_TYPE":"U","NORAD_CAT_ID":49199,"ELEMENT_SET_NO":999,"REV_AT_EPOCH":22286,"BSTAR":-0.0005582300000000001,"MEAN_MOTION_DOT":-1.91e-06,"MEAN_MOTION_DDOT":0.0},{"OBJECT_NAME":"ONEWEB-0334","OBJECT_ID":"2021-083Q","EPOCH":"2026-04-16T18:42:30.921120","MEAN_MOTION":13.20773062,"ECCENTRICITY":0.0002633,"INCLINATION":87.9127,"RA_OF_ASC_NODE":286.7075,"ARG_OF_PERICENTER":80.6856,"MEAN_ANOMALY":279.4575,"EPHEMERIS_TYPE":0,"CLASSIFICATION_TYPE":"U","NORAD_CAT_ID":49200,"ELEMENT_SET_NO":999,"REV_AT_EPOCH":22868,"BSTAR":-4.2153e-05,"MEAN_MOTION_DOT":-4e-08,"MEAN_MOTION_DDOT":0.0},{"OBJECT_NAME":"ONEWEB-0335","OBJECT_ID":"2021-083R","EPOCH":"2026-04-16T14:00:21.491712","MEAN_MOTION":13.13469849,"ECCENTRICITY":0.0001575,"INCLINATION":87.898,"RA_OF_ASC_NODE":332.5029,"ARG_OF_PERICENTER":87.5821,"MEAN_ANOMALY":272.5488,"EPHEMERIS_TYPE":0,"CLASSIFICATION_TYPE":"U","NORAD_CAT_ID":49201,"ELEMENT_SET_NO":999,"REV_AT_EPOCH":22283,"BSTAR":-0.00061151,"MEAN_MOTION_DOT":-2.11e-06,"MEAN_MOTION_DDOT":0.0},{"OBJECT_NAME":"ONEWEB-0336","OBJECT_ID":"2021-083S","EPOCH":"2026-04-16T20:37:42.877920","MEAN_MOTION":13.13468211,"ECCENTRICITY":0.0001311,"INCLINATION":87.8979,"RA_OF_ASC_NODE":332.4446,"ARG_OF_PERICENTER":90.0158,"MEAN_ANOMALY":270.1121,"EPHEMERIS_TYPE":0,"CLASSIFICATION_TYPE":"U","NORAD_CAT_ID":49202,"ELEMENT_SET_NO":999,"REV_AT_EPOCH":22286,"BSTAR":0.00017825,"MEAN_MOTION_DOT":7.8e-07,"MEAN_MOTION_DDOT":0.0},{"OBJECT_NAME":"ONEWEB-0337","OBJECT_ID":"2021-083T","EPOCH":"2026-04-16T20:52:08.719104","MEAN_MOTION":13.13468998,"ECCENTRICITY":0.0001508,"INCLINATION":87.8977,"RA_OF_ASC_NODE":332.4498,"ARG_OF_PERICENTER":80.7654,"MEAN_ANOMALY":279.3645,"EPHEMERIS_TYPE":0,"CLASSIFICATION_TYPE":"U","NORAD_CAT_ID":49203,"ELEMENT_SET_NO":999,"REV_AT_EPOCH":22286,"BSTAR":-0.00030995,"MEAN_MOTION_DOT":-1e-06,"MEAN_MOTION_DDOT":0.0},{"OBJECT_NAME":"ONEWEB-0338","OBJECT_ID":"2021-083U","EPOCH":"2026-04-16T12:38:53.022048","MEAN_MOTION":13.20773476,"ECCENTRICITY":0.0002044,"INCLINATION":87.9124,"RA_OF_ASC_NODE":286.7628,"ARG_OF_PERICENTER":87.0181,"MEAN_ANOMALY":273.1186,"EPHEMERIS_TYPE":0,"CLASSIFICATION_TYPE":"U","NORAD_CAT_ID":49204,"ELEMENT_SET_NO":999,"REV_AT_EPOCH":22867,"BSTAR":0.00012464,"MEAN_MOTION_DOT":6.4e-07,"MEAN_MOTION_DDOT":0.0},{"OBJECT_NAME":"ONEWEB-0339","OBJECT_ID":"2021-083V","EPOCH":"2026-04-16T21:04:31.141344","MEAN_MOTION":13.13468588,"ECCENTRICITY":0.0001892,"INCLINATION":87.8987,"RA_OF_ASC_NODE":332.4388,"ARG_OF_PERICENTER":76.0563,"MEAN_ANOMALY":284.0776,"EPHEMERIS_TYPE":0,"CLASSIFICATION_TYPE":"U","NORAD_CAT_ID":49205,"ELEMENT_SET_NO":999,"REV_AT_EPOCH":22284,"BSTAR":-0.00084797,"MEAN_MOTION_DOT":-2.97e-06,"MEAN_MOTION_DDOT":0.0},{"OBJECT_NAME":"ONEWEB-0340","OBJECT_ID":"2021-083W","EPOCH":"2026-04-16T14:21:31.910400","MEAN_MOTION":13.18684266,"ECCENTRICITY":0.0001731,"INCLINATION":87.9222,"RA_OF_ASC_NODE":347.7009,"ARG_OF_PERICENTER":83.6906,"MEAN_ANOMALY":276.4424,"EPHEMERIS_TYPE":0,"CLASSIFICATION_TYPE":"U","NORAD_CAT_ID":49206,"ELEMENT_SET_NO":999,"REV_AT_EPOCH":22185,"BSTAR":3.3203e-05,"MEAN_MOTION_DOT":2.6e-07,"MEAN_MOTION_DDOT":0.0}]