ONEWEB-0321             
1 49191U 21083F   26106.76216076  .00000019  00000+0  15763-4 0  9993
2 49191  87.9137 286.6963 0001868  83.7138 276.4208 13.20770578228724
ONEWEB-0322             
1 49192U 21083G   26106.60390936  .00000275  00000+0  71852-3 0  9999
2 49192  87.8971 332.5047 0002167  79.7850 280.3523 13.13470461222833
ONEWEB-0324             
1 49193U 21083H   26106.59993684 -.00000010  00000+0 -59271-4 0  9998
2 49193  87.9221 347.6948 0001683  77.6868 282.4453 13.18684101221880
ONEWEB-0325             
1 49194U 21083J   26106.60324241 -.00000011  00000+0 -61561-4 0  9994
2 49194  87.9213 347.7083 0001795  82.6897 277.4439 13.18684892221891
ONEWEB-0326             
1 49195U 21083K   26106.61822171  .00000131  00000+0  29965-3 0  9993
2 49195  87.9223 347.6978 0001696  91.0930 269.0396 13.18685594221885
ONEWEB-0327             
1 49196U 21083L   26106.61794146 -.00000115  00000+0 -32510-3 0  9998
2 49196  87.9213 347.7073 0001815  95.4348 264.6991 13.18685169221909
ONEWEB-0328             
1 49197U 21083M   26106.59375012  .00000004  00000+0 -23634-4 0  9997
2 49197  87.8989 332.4728 0001602  79.4927 280.6382 13.13469748222817
ONEWEB-0331             
1 49198U 21083N   26106.61148086 -.00000015  00000+0 -71193-4 0  9996
2 49198  87.9224 347.6927 0001461  88.6383 271.4917 13.18686900221896
ONEWEB-0333             
1 49199U 21083P   26106.89337913 -.00000191  00000+0 -55823-3 0  9992
2 49199  87.8976 332.4450 0001745  84.7071 275.4258 13.13469646222860
ONEWEB-0334             
1 49200U 21083Q   26106.77952455 -.00000004  00000+0 -42153-4 0  9992
2 49200  87.9127 286.7075 0002633  80.6856 279.4575 13.20773062228689
ONEWEB-0335             
1 49201U 21083R   26106.58358208 -.00000211  00000+0 -61151-3 0  9996
2 49201  87.8980 332.5029 0001575  87.5821 272.5488 13.13469849222832
ONEWEB-0336             
1 49202U 21083S   26106.85952405  .00000078  00000+0  17825-3 0  9994
2 49202  87.8979 332.4446 0001311  90.0158 270.1121 13.13468211222866
ONEWEB-0337             
1 49203U 21083T   26106.86954536 -.00000100  00000+0 -30995-3 0  9994
2 49203  87.8977 332.4498 0001508  80.7654 279.3645 13.13468998222861
ONEWEB-0338             
1 49204U 21083U   26106.52700257  .00000064  00000+0  12464-3 0  9995
2 49204  87.9124 286.7628 0002044  87.0181 273.1186 13.20773476228679
ONEWEB-0339             
1 49205U 21083V   26106.87813821 -.00000297  00000+0 -84797-3 0  9994
2 49205  87.8987 332.4388 0001892  76.0563 284.0776 13.13468588222846
ONEWEB-0340             
1 49206U 21083W   26106.59828600  .00000026  00000+0  33203-4 0  9990
2 49206  87.9222 347.7009 0001731  83.6906 276.4424 13.18684266221859
